STARLINK-31627          
1 59268U 24050Q   26068.62213281  .00026938  00000+0  91832-3 0  9991
2 59268  53.1599 181.6290 0000970  80.9687 279.1423 15.30200209110535
TEVEL2-6                
1 63215U 25052F   26068.64958975  .00021046  00000+0  70909-3 0  9996
2 63215  97.4016 325.0381 0004769  95.6604 264.5181 15.30760889 54861
